CCSDS_OMM_VERS = 2.0
CREATION_DATE  = 
ORIGINATOR     = 

OBJECT_NAME    = STARLINK-35496
OBJECT_ID      = 2025-237A
CENTER_NAME    = EARTH
REF_FRAME      = TEME
TIME_SYSTEM    = UTC
MEAN_ELEMENT_THEORY = SGP/SGP4

EPOCH          = 2025-11-19T22:00:01.999584
MEAN_MOTION    = 15.39617765
ECCENTRICITY   = .00008634
INCLINATION    = 53.1595
RA_OF_ASC_NODE = 195.0188
ARG_OF_PERICENTER = 148.0302
MEAN_ANOMALY   = 302.0101

EPHEMERIS_TYPE = 0
CLASSIFICATION_TYPE = U
NORAD_CAT_ID   = 66114
ELEMENT_SET_NO = 999
REV_AT_EPOCH   = 580
BSTAR          = .8120342E-3
MEAN_MOTION_DOT = .32216E-3
MEAN_MOTION_DDOT = 0

CCSDS_OMM_VERS = 2.0
CREATION_DATE  = 
ORIGINATOR     = 

OBJECT_NAME    = STARLINK-35428
OBJECT_ID      = 2025-237B
CENTER_NAME    = EARTH
REF_FRAME      = TEME
TIME_SYSTEM    = UTC
MEAN_ELEMENT_THEORY = SGP/SGP4

EPOCH          = 2025-11-19T22:00:01.999584
MEAN_MOTION    = 15.39604085
ECCENTRICITY   = .00013564
INCLINATION    = 53.1597
RA_OF_ASC_NODE = 195.1715
ARG_OF_PERICENTER = 96.3927
MEAN_ANOMALY   = 276.5107

EPHEMERIS_TYPE = 0
CLASSIFICATION_TYPE = U
NORAD_CAT_ID   = 66115
ELEMENT_SET_NO = 999
REV_AT_EPOCH   = 580
BSTAR          = .40193266E-3
MEAN_MOTION_DOT = .15702E-3
MEAN_MOTION_DDOT = 0

CCSDS_OMM_VERS = 2.0
CREATION_DATE  = 
ORIGINATOR     = 

OBJECT_NAME    = STARLINK-35573
OBJECT_ID      = 2025-237C
CENTER_NAME    = EARTH
REF_FRAME      = TEME
TIME_SYSTEM    = UTC
MEAN_ELEMENT_THEORY = SGP/SGP4

EPOCH          = 2025-11-18T09:42:17.040960
MEAN_MOTION    = 15.49267070
ECCENTRICITY   = .00024307
INCLINATION    = 53.1611
RA_OF_ASC_NODE = 202.1102
ARG_OF_PERICENTER = 37.3147
MEAN_ANOMALY   = 322.8030

EPHEMERIS_TYPE = 0
CLASSIFICATION_TYPE = U
NORAD_CAT_ID   = 66116
ELEMENT_SET_NO = 999
REV_AT_EPOCH   = 549
BSTAR          = .18139223E-2
MEAN_MOTION_DOT = .10161E-2
MEAN_MOTION_DDOT = 0

CCSDS_OMM_VERS = 2.0
CREATION_DATE  = 
ORIGINATOR     = 

OBJECT_NAME    = STARLINK-35572
OBJECT_ID      = 2025-237D
CENTER_NAME    = EARTH
REF_FRAME      = TEME
TIME_SYSTEM    = UTC
MEAN_ELEMENT_THEORY = SGP/SGP4

EPOCH          = 2025-11-19T22:00:01.999584
MEAN_MOTION    = 15.39605005
ECCENTRICITY   = .00011637
INCLINATION    = 53.1599
RA_OF_ASC_NODE = 195.1205
ARG_OF_PERICENTER = 91.4636
MEAN_ANOMALY   = 307.1983

EPHEMERIS_TYPE = 0
CLASSIFICATION_TYPE = U
NORAD_CAT_ID   = 66117
ELEMENT_SET_NO = 999
REV_AT_EPOCH   = 580
BSTAR          = .38774395E-3
MEAN_MOTION_DOT = .15133E-3
MEAN_MOTION_DDOT = 0

CCSDS_OMM_VERS = 2.0
CREATION_DATE  = 
ORIGINATOR     = 

OBJECT_NAME    = STARLINK-35468
OBJECT_ID      = 2025-237E
CENTER_NAME    = EARTH
REF_FRAME      = TEME
TIME_SYSTEM    = UTC
MEAN_ELEMENT_THEORY = SGP/SGP4

EPOCH          = 2025-11-19T22:03:23.857632
MEAN_MOTION    = 15.39628601
ECCENTRICITY   = .00011151
INCLINATION    = 53.1603
RA_OF_ASC_NODE = 195.2109
ARG_OF_PERICENTER = 96.0958
MEAN_ANOMALY   = 264.0174

EPHEMERIS_TYPE = 0
CLASSIFICATION_TYPE = U
NORAD_CAT_ID   = 66118
ELEMENT_SET_NO = 999
REV_AT_EPOCH   = 572
BSTAR          = .95179346E-3
MEAN_MOTION_DOT = .37871E-3
MEAN_MOTION_DDOT = 0

CCSDS_OMM_VERS = 2.0
CREATION_DATE  = 
ORIGINATOR     = 

OBJECT_NAME    = STARLINK-35547
OBJECT_ID      = 2025-237F
CENTER_NAME    = EARTH
REF_FRAME      = TEME
TIME_SYSTEM    = UTC
MEAN_ELEMENT_THEORY = SGP/SGP4

EPOCH          = 2025-11-19T22:00:01.999584
MEAN_MOTION    = 15.39605455
ECCENTRICITY   = .00010383
INCLINATION    = 53.1593
RA_OF_ASC_NODE = 194.9658
ARG_OF_PERICENTER = 101.0961
MEAN_ANOMALY   = 14.8196

EPHEMERIS_TYPE = 0
CLASSIFICATION_TYPE = U
NORAD_CAT_ID   = 66119
ELEMENT_SET_NO = 999
REV_AT_EPOCH   = 580
BSTAR          = .44880302E-3
MEAN_MOTION_DOT = .17585E-3
MEAN_MOTION_DDOT = 0

CCSDS_OMM_VERS = 2.0
CREATION_DATE  = 
ORIGINATOR     = 

OBJECT_NAME    = STARLINK-35553
OBJECT_ID      = 2025-237G
CENTER_NAME    = EARTH
REF_FRAME      = TEME
TIME_SYSTEM    = UTC
MEAN_ELEMENT_THEORY = SGP/SGP4

EPOCH          = 2025-11-19T22:00:01.999584
MEAN_MOTION    = 15.39564868
ECCENTRICITY   = .00013947
INCLINATION    = 53.1599
RA_OF_ASC_NODE = 195.0690
ARG_OF_PERICENTER = 92.4391
MEAN_ANOMALY   = 331.9533

EPHEMERIS_TYPE = 0
CLASSIFICATION_TYPE = U
NORAD_CAT_ID   = 66120
ELEMENT_SET_NO = 999
REV_AT_EPOCH   = 580
BSTAR          = .39881817E-3
MEAN_MOTION_DOT = .15557E-3
MEAN_MOTION_DDOT = 0

CCSDS_OMM_VERS = 2.0
CREATION_DATE  = 
ORIGINATOR     = 

OBJECT_NAME    = STARLINK-35631
OBJECT_ID      = 2025-237H
CENTER_NAME    = EARTH
REF_FRAME      = TEME
TIME_SYSTEM    = UTC
MEAN_ELEMENT_THEORY = SGP/SGP4

EPOCH          = 2025-11-19T22:00:01.999584
MEAN_MOTION    = 15.44436705
ECCENTRICITY   = .00014592
INCLINATION    = 53.1590
RA_OF_ASC_NODE = 194.8816
ARG_OF_PERICENTER = 83.8462
MEAN_ANOMALY   = 74.3983

EPHEMERIS_TYPE = 0
CLASSIFICATION_TYPE = U
NORAD_CAT_ID   = 66121
ELEMENT_SET_NO = 999
REV_AT_EPOCH   = 580
BSTAR          = -.49708254E-1
MEAN_MOTION_DOT = -.2074077E-1
MEAN_MOTION_DDOT = 0

CCSDS_OMM_VERS = 2.0
CREATION_DATE  = 
ORIGINATOR     = 

OBJECT_NAME    = STARLINK-35653
OBJECT_ID      = 2025-237J
CENTER_NAME    = EARTH
REF_FRAME      = TEME
TIME_SYSTEM    = UTC
MEAN_ELEMENT_THEORY = SGP/SGP4

EPOCH          = 2025-11-18T23:35:16.912896
MEAN_MOTION    = 15.49372472
ECCENTRICITY   = .00011219
INCLINATION    = 53.1598
RA_OF_ASC_NODE = 199.3179
ARG_OF_PERICENTER = 96.3296
MEAN_ANOMALY   = 263.7841

EPHEMERIS_TYPE = 0
CLASSIFICATION_TYPE = U
NORAD_CAT_ID   = 66122
ELEMENT_SET_NO = 999
REV_AT_EPOCH   = 558
BSTAR          = .71267134E-3
MEAN_MOTION_DOT = .39477E-3
MEAN_MOTION_DDOT = 0

CCSDS_OMM_VERS = 2.0
CREATION_DATE  = 
ORIGINATOR     = 

OBJECT_NAME    = STARLINK-35628
OBJECT_ID      = 2025-237K
CENTER_NAME    = EARTH
REF_FRAME      = TEME
TIME_SYSTEM    = UTC
MEAN_ELEMENT_THEORY = SGP/SGP4

EPOCH          = 2025-11-19T08:52:10.562016
MEAN_MOTION    = 15.49294738
ECCENTRICITY   = .00014668
INCLINATION    = 53.1606
RA_OF_ASC_NODE = 197.4668
ARG_OF_PERICENTER = 84.3380
MEAN_ANOMALY   = 275.7796

EPHEMERIS_TYPE = 0
CLASSIFICATION_TYPE = U
NORAD_CAT_ID   = 66123
ELEMENT_SET_NO = 999
REV_AT_EPOCH   = 564
BSTAR          = .15865338E-2
MEAN_MOTION_DOT = .88752E-3
MEAN_MOTION_DDOT = 0

CCSDS_OMM_VERS = 2.0
CREATION_DATE  = 
ORIGINATOR     = 

OBJECT_NAME    = STARLINK-35645
OBJECT_ID      = 2025-237L
CENTER_NAME    = EARTH
REF_FRAME      = TEME
TIME_SYSTEM    = UTC
MEAN_ELEMENT_THEORY = SGP/SGP4

EPOCH          = 2025-11-19T08:51:41.567904
MEAN_MOTION    = 15.49282778
ECCENTRICITY   = .00016933
INCLINATION    = 53.1599
RA_OF_ASC_NODE = 197.4645
ARG_OF_PERICENTER = 88.5208
MEAN_ANOMALY   = 271.5995

EPHEMERIS_TYPE = 0
CLASSIFICATION_TYPE = U
NORAD_CAT_ID   = 66124
ELEMENT_SET_NO = 999
REV_AT_EPOCH   = 564
BSTAR          = .18924017E-2
MEAN_MOTION_DOT = .106143E-2
MEAN_MOTION_DDOT = 0

CCSDS_OMM_VERS = 2.0
CREATION_DATE  = 
ORIGINATOR     = 

OBJECT_NAME    = STARLINK-35649
OBJECT_ID      = 2025-237M
CENTER_NAME    = EARTH
REF_FRAME      = TEME
TIME_SYSTEM    = UTC
MEAN_ELEMENT_THEORY = SGP/SGP4

EPOCH          = 2025-11-19T08:51:11.518848
MEAN_MOTION    = 15.49292289
ECCENTRICITY   = .00014132
INCLINATION    = 53.1607
RA_OF_ASC_NODE = 197.4623
ARG_OF_PERICENTER = 91.9949
MEAN_ANOMALY   = 268.1222

EPHEMERIS_TYPE = 0
CLASSIFICATION_TYPE = U
NORAD_CAT_ID   = 66125
ELEMENT_SET_NO = 999
REV_AT_EPOCH   = 564
BSTAR          = .19760711E-2
MEAN_MOTION_DOT = .110961E-2
MEAN_MOTION_DDOT = 0

