STARLINK-35496          
1 66114U 25237A   25323.91668981  .00032216  00000+0  81203-3 0  9990
2 66114  53.1595 195.0188 0000863 148.0302 302.0101 15.39617765  5805
STARLINK-35428          
1 66115U 25237B   25323.91668981  .00015702  00000+0  40193-3 0  9995
2 66115  53.1597 195.1715 0001356  96.3927 276.5107 15.39604085  5803
STARLINK-35573          
1 66116U 25237C   25322.40436390  .00101610  00000+0  18139-2 0  9994
2 66116  53.1611 202.1102 0002430  37.3147 322.8030 15.49267070  5498
STARLINK-35572          
1 66117U 25237D   25323.91668981  .00015133  00000+0  38774-3 0  9997
2 66117  53.1599 195.1205 0001163  91.4636 307.1983 15.39605005  5806
STARLINK-35468          
1 66118U 25237E   25323.91902613  .00037871  00000+0  95179-3 0  9996
2 66118  53.1603 195.2109 0001115  96.0958 264.0174 15.39628601  5723
STARLINK-35547          
1 66119U 25237F   25323.91668981  .00017585  00000+0  44880-3 0  9997
2 66119  53.1593 194.9658 0001038 101.0961  14.8196 15.39605455  5808
STARLINK-35553          
1 66120U 25237G   25323.91668981  .00015557  00000+0  39882-3 0  9992
2 66120  53.1599 195.0690 0001394  92.4391 331.9533 15.39564868  5809
STARLINK-35631          
1 66121U 25237H   25323.91668981 -.02074077  00000+0 -49708-1 0  9995
2 66121  53.1590 194.8816 0001459  83.8462  74.3983 15.44436705  5804
STARLINK-35653          
1 66122U 25237J   25322.98283464  .00039477  00000+0  71267-3 0  9999
2 66122  53.1598 199.3179 0001121  96.3296 263.7841 15.49372472  5582
STARLINK-35628          
1 66123U 25237K   25323.36956669  .00088752  00000+0  15865-2 0  9998
2 66123  53.1606 197.4668 0001466  84.3380 275.7796 15.49294738  5645
STARLINK-35645          
1 66124U 25237L   25323.36923111  .00106143  00000+0  18924-2 0  9999
2 66124  53.1599 197.4645 0001693  88.5208 271.5995 15.49282778  5645
STARLINK-35649          
1 66125U 25237M   25323.36888332  .00110961  00000+0  19761-2 0  9998
2 66125  53.1607 197.4623 0001413  91.9949 268.1222 15.49292289  5645
